[{"OBJECT_NAME":"SNUGLITE-III","OBJECT_ID":"2025-274M","EPOCH":"2026-03-09T18:38:00.597984","MEAN_MOTION":14.93615044,"ECCENTRICITY":0.00147171,"INCLINATION":97.744,"RA_OF_ASC_NODE":359.6505,"ARG_OF_PERICENTER":357.0951,"MEAN_ANOMALY":3.0181,"EPHEMERIS_TYPE":0,"CLASSIFICATION_TYPE":"U","NORAD_CAT_ID":66661,"ELEMENT_SET_NO":999,"REV_AT_EPOCH":1539,"BSTAR":0.00024849196,"MEAN_MOTION_DOT":2.571e-5,"MEAN_MOTION_DDOT":0},{"OBJECT_NAME":"SCOUT X-4 R\/B","OBJECT_ID":"1965-101B","EPOCH":"2026-03-09T17:10:13.574496","MEAN_MOTION":14.9141233,"ECCENTRICITY":0.0006189,"INCLINATION":75.8427,"RA_OF_ASC_NODE":166.1466,"ARG_OF_PERICENTER":28.3515,"MEAN_ANOMALY":331.8013,"EPHEMERIS_TYPE":0,"CLASSIFICATION_TYPE":"U","NORAD_CAT_ID":1815,"ELEMENT_SET_NO":999,"REV_AT_EPOCH":5339,"BSTAR":0.00037236868,"MEAN_MOTION_DOT":3.702e-5,"MEAN_MOTION_DDOT":0}]
